STARLINK-2370
1 27910C 21021BC  21325.06116737  .00001970  00000-0  13204-3 0  3254
2 27910  53.0538 117.9425 0001574  72.7787 318.0412 15.06386636    15
